{
  "type": "FeatureCollection",
  "features": [
    {
      "type": "Feature",
      "properties": {
        "norad_id": 29961,
        "name": "FENGYUN 1C DEB",
        "group": "fengyun-1c-debris",
        "lat": -32.87984419536353,
        "lon": -124.70355870809269,
        "alt_km": 757.6561570752056,
        "timestamp": "2025-12-08T03:50:07.269956+00:00",
        "meta_object_name": "FENGYUN 1C DEB",
        "meta_object_id": "1999-025KK",
        "meta_epoch": "2025-12-07T02:44:00.389760",
        "meta_mean_motion": 14.2620574,
        "meta_eccentricity": 0.00743853,
        "meta_inclination": 98.9487,
        "meta_ra_of_asc_node": 228.3822,
        "meta_arg_of_pericenter": 321.2579,
        "meta_mean_anomaly": 38.328,
        "meta_ephemeris_type": 0,
        "meta_classification_type": "U",
        "meta_norad_cat_id": 29961,
        "meta_element_set_no": 999,
        "meta_rev_at_epoch": 98229,
        "meta_bstar": 0.00036428575,
        "meta_mean_motion_dot": 8.52e-06,
        "meta_mean_motion_ddot": 0,
        "tle_line1": "1 29961U 99025KK  25341.11389340  .00000852  00000+0  36429-3 0  9997",
        "tle_line2": "2 29961  98.9487 228.3822 0074385 321.2579  38.3280 14.26205740982292"
      },
      "geometry": {
        "type": "Point",
        "coordinates": [
          -124.70355870809269,
          -32.87984419536353
        ]
      }
    },
    {
      "type": "Feature",
      "properties": {
        "norad_id": 29962,
        "name": "FENGYUN 1C DEB",
        "group": "fengyun-1c-debris",
        "lat": 81.0636579458826,
        "lon": -110.5506151901549,
        "alt_km": 924.3439191167026,
        "timestamp": "2025-12-08T03:50:07.269966+00:00",
        "meta_object_name": "FENGYUN 1C DEB",
        "meta_object_id": "1999-025KL",
        "meta_epoch": "2025-12-07T06:58:24.839328",
        "meta_mean_motion": 14.07152816,
        "meta_eccentricity": 0.0109519,
        "meta_inclination": 98.7687,
        "meta_ra_of_asc_node": 349.6266,
        "meta_arg_of_pericenter": 236.6629,
        "meta_mean_anomaly": 134.8924,
        "meta_ephemeris_type": 0,
        "meta_classification_type": "U",
        "meta_norad_cat_id": 29962,
        "meta_element_set_no": 999,
        "meta_rev_at_epoch": 96921,
        "meta_bstar": 0.00024613965,
        "meta_mean_motion_dot": 3.92e-06,
        "meta_mean_motion_ddot": 0,
        "tle_line1": "1 29962U 99025KL  25341.29056527  .00000392  00000+0  24614-3 0  9997",
        "tle_line2": "2 29962  98.7687 349.6266 0109519 236.6629 134.8924 14.07152816969213"
      },
      "geometry": {
        "type": "Point",
        "coordinates": [
          -110.5506151901549,
          81.0636579458826
        ]
      }
    },
    {
      "type": "Feature",
      "properties": {
        "norad_id": 29963,
        "name": "FENGYUN 1C DEB",
        "group": "fengyun-1c-debris",
        "lat": -80.8770032530223,
        "lon": -53.36721028824323,
        "alt_km": 774.0954451288526,
        "timestamp": "2025-12-08T03:50:07.269976+00:00",
        "meta_object_name": "FENGYUN 1C DEB",
        "meta_object_id": "1999-025KM",
        "meta_epoch": "2025-12-07T03:45:49.529664",
        "meta_mean_motion": 14.29429297,
        "meta_eccentricity": 0.00518781,
        "meta_inclination": 98.9984,
        "meta_ra_of_asc_node": 224.9357,
        "meta_arg_of_pericenter": 318.4275,
        "meta_mean_anomaly": 195.0628,
        "meta_ephemeris_type": 0,
        "meta_classification_type": "U",
        "meta_norad_cat_id": 29963,
        "meta_element_set_no": 999,
        "meta_rev_at_epoch": 98063,
        "meta_bstar": 0.0012702816,
        "meta_mean_motion_dot": 3.242e-05,
        "meta_mean_motion_ddot": 0,
        "tle_line1": "1 29963U 99025KM  25341.15682326  .00003242  00000+0  12703-2 0  9997",
        "tle_line2": "2 29963  98.9984 224.9357 0051878 318.4275 195.0628 14.29429297980635"
      },
      "geometry": {
        "type": "Point",
        "coordinates": [
          -53.36721028824323,
          -80.8770032530223
        ]
      }
    },
    {
      "type": "Feature",
      "properties": {
        "norad_id": 29964,
        "name": "FENGYUN 1C DEB",
        "group": "fengyun-1c-debris",
        "lat": -63.589018803687225,
        "lon": -12.216527994488995,
        "alt_km": 815.8527949746876,
        "timestamp": "2025-12-08T03:50:07.269986+00:00",
        "meta_object_name": "FENGYUN 1C DEB",
        "meta_object_id": "1999-025KN",
        "meta_epoch": "2025-12-07T00:58:54.456384",
        "meta_mean_motion": 14.02718197,
        "meta_eccentricity": 0.01310237,
        "meta_inclination": 98.3714,
        "meta_ra_of_asc_node": 184.0012,
        "meta_arg_of_pericenter": 285.73,
        "meta_mean_anomaly": 72.9449,
        "meta_ephemeris_type": 0,
        "meta_classification_type": "U",
        "meta_norad_cat_id": 29964,
        "meta_element_set_no": 999,
        "meta_rev_at_epoch": 96237,
        "meta_bstar": 0.0015868847,
        "meta_mean_motion_dot": 2.604e-05,
        "meta_mean_motion_ddot": 0,
        "tle_line1": "1 29964U 99025KN  25341.04090806  .00002604  00000+0  15869-2 0  9999",
        "tle_line2": "2 29964  98.3714 184.0012 0131023 285.7300  72.9449 14.02718197962377"
      },
      "geometry": {
        "type": "Point",
        "coordinates": [
          -12.216527994488995,
          -63.589018803687225
        ]
      }
    },
    {
      "type": "Feature",
      "properties": {
        "norad_id": 29965,
        "name": "FENGYUN 1C DEB",
        "group": "fengyun-1c-debris",
        "lat": 66.96418252356969,
        "lon": 178.6991777189054,
        "alt_km": 809.9389246622977,
        "timestamp": "2025-12-08T03:50:07.269996+00:00",
        "meta_object_name": "FENGYUN 1C DEB",
        "meta_object_id": "1999-025KP",
        "meta_epoch": "2025-12-07T05:13:52.253760",
        "meta_mean_motion": 13.95770543,
        "meta_eccentricity": 0.01462205,
        "meta_inclination": 98.9622,
        "meta_ra_of_asc_node": 335.9979,
        "meta_arg_of_pericenter": 83.0856,
        "meta_mean_anomaly": 337.3835,
        "meta_ephemeris_type": 0,
        "meta_classification_type": "U",
        "meta_norad_cat_id": 29965,
        "meta_element_set_no": 999,
        "meta_rev_at_epoch": 96199,
        "meta_bstar": 0.00044724144,
        "meta_mean_motion_dot": 6.26e-06,
        "meta_mean_motion_ddot": 0,
        "tle_line1": "1 29965U 99025KP  25341.21796590  .00000626  00000+0  44724-3 0  9997",
        "tle_line2": "2 29965  98.9622 335.9979 0146220  83.0856 337.3835 13.95770543961999"
      },
      "geometry": {
        "type": "Point",
        "coordinates": [
          178.6991777189054,
          66.96418252356969
        ]
      }
    },
    {
      "type": "Feature",
      "properties": {
        "norad_id": 29966,
        "name": "FENGYUN 1C DEB",
        "group": "fengyun-1c-debris",
        "lat": -0.9724955812498969,
        "lon": 8.581324932521106,
        "alt_km": 837.5932197335187,
        "timestamp": "2025-12-08T03:50:07.270006+00:00",
        "meta_object_name": "FENGYUN 1C DEB",
        "meta_object_id": "1999-025KQ",
        "meta_epoch": "2025-12-07T06:46:42.294144",
        "meta_mean_motion": 14.25737626,
        "meta_eccentricity": 0.00397958,
        "meta_inclination": 99.4918,
        "meta_ra_of_asc_node": 187.7949,
        "meta_arg_of_pericenter": 0.8449,
        "meta_mean_anomaly": 359.2788,
        "meta_ephemeris_type": 0,
        "meta_classification_type": "U",
        "meta_norad_cat_id": 29966,
        "meta_element_set_no": 999,
        "meta_rev_at_epoch": 97965,
        "meta_bstar": 0.00066951978,
        "meta_mean_motion_dot": 1.552e-05,
        "meta_mean_motion_ddot": 0,
        "tle_line1": "1 29966U 99025KQ  25341.28243396  .00001552  00000+0  66952-3 0  9992",
        "tle_line2": "2 29966  99.4918 187.7949 0039795   0.8449 359.2788 14.25737626979658"
      },
      "geometry": {
        "type": "Point",
        "coordinates": [
          8.581324932521106,
          -0.9724955812498969
        ]
      }
    },
    {
      "type": "Feature",
      "properties": {
        "norad_id": 29967,
        "name": "FENGYUN 1C DEB",
        "group": "fengyun-1c-debris",
        "lat": 31.957862285375203,
        "lon": 53.1424239508636,
        "alt_km": 807.7565895030293,
        "timestamp": "2025-12-08T03:50:07.270017+00:00",
        "meta_object_name": "FENGYUN 1C DEB",
        "meta_object_id": "1999-025KR",
        "meta_epoch": "2025-12-06T04:34:59.346624",
        "meta_mean_motion": 14.23524428,
        "meta_eccentricity": 0.0075541,
        "meta_inclination": 98.8666,
        "meta_ra_of_asc_node": 56.7471,
        "meta_arg_of_pericenter": 311.6601,
        "meta_mean_anomaly": 75.8607,
        "meta_ephemeris_type": 0,
        "meta_classification_type": "U",
        "meta_norad_cat_id": 29967,
        "meta_element_set_no": 999,
        "meta_rev_at_epoch": 97129,
        "meta_bstar": 0.0024566433,
        "meta_mean_motion_dot": 5.714e-05,
        "meta_mean_motion_ddot": 0,
        "tle_line1": "1 29967U 99025KR  25340.19096466  .00005714  00000+0  24566-2 0  9994",
        "tle_line2": "2 29967  98.8666  56.7471 0075541 311.6601  75.8607 14.23524428971294"
      },
      "geometry": {
        "type": "Point",
        "coordinates": [
          53.1424239508636,
          31.957862285375203
        ]
      }
    }
  ]
}